#dP2021 10 31  0  0  0.00000000      97 __u+U IGS14 FIT  IAC
## 2182      0.00000000   900.00000000 59518 0.0000000000000
+  122   C01C02C03C04C05C06C07C08C09C10C11C12C13C14C16C19C20
+        C21C22C23C24C25C26C27C29C30C32C33C34C35C36C37C38C39
+        C40C41C42C43C44C45C46C59C60E01E02E03E04E05E07E08E09
+        E11E12E13E14E15E18E19E21E24E25E26E27E31E33E36G01G02
+        G03G04G05G06G07G08G09G10G12G13G14G15G16G17G18G19G20
+        G21G22G23G24G25G26G27G28G29G30G31G32J01J02J03J07R01
+        R02R03R04R05R07R08R09R11R12R13R14R15R16R17R18R19R20
+        R21R22R24  0  0  0  0  0  0  0  0  0  0  0  0  0  0
++        13 13 13 13 13  9  9  9  9  8  8  8  9  8  9  7  7
++         7  7  7  6  7  6  7  6  7  7  7  7  7  7  7  7  7
++         7  7  7  7  7  7  7 14 13  4  4  4  4  4  4  4  4
++         4  4  4  4  4  5  4  4  4  4  4  4  4  4  4  3  3
++         3  3  3  3  3  3  3  3  3  3  3  3  3  3  3  3  3
++         3  3  3  3  3  3  3  4  3  3  3  3  8  8  8 13  7
++         6  6  6  6  5  6  5  7  6  7  5  5  7  5  6  7  7
++         5  7  5  0  0  0  0  0  0  0  0  0  0  0  0  0  0
%c M  cc GPS ccc cccc cccc cccc cccc ccccc ccccc ccccc ccccc
%c cc cc ccc ccc cccc cccc cccc cccc ccccc ccccc ccccc ccccc
%f  1.2500000  1.025000000  0.00000000000  0.000000000000000
%f  0.0000000  0.000000000  0.00000000000  0.000000000000000
%i    0    0    0    0      0      0      0      0         0
%i    0    0    0    0      0      0      0      0         0
/* INFORMATION & ANALYSIS CENTER (IAC)            FINAL DATA
/* S/V CLOCKS ARE ALIGNED TO GNSS TIME                      
/* G:C1WC2W R:C1PC2P E:C1XC5X C:C2IC6I J:C1CC2S             
/* PCV:IGS14_2163 OL/AL:FES2004  NONE     YN ORB:CoN CLK:CoN
*  2021 10 31  1 30  0.00000000
PC01 -34325.239854  24433.454687     98.313164   -497.808979
PC02   4378.054843  41961.701060    907.477628    203.031991
PC03 -14812.586435  39455.692736   1413.796364     81.576772
PC04 -39599.135733  14391.939471     -7.602467   -229.789649
PC05  21880.809431  36038.102438   1028.771300    285.965928
PC06 -14743.026774  39184.164980  -5796.452986    414.866589
PC07  -3391.502740  31565.055037 -27685.595512   -275.587484
PC08 -13425.107715  21004.096328  33971.206856   -814.342331
PC09 -10390.524856  38741.869856 -13407.389087   -227.430981
PC10   4514.508776  34661.769045 -23003.338389      9.784028
PC11    300.961151  22225.441753  16910.812227    662.096645
PC12 -12832.863343  24751.257029    800.193648    730.942917
PC13  -5677.573958  22896.905731  35014.316285    459.563165
PC14  10921.011940  24920.290990   6091.969402    558.500256
PC16 -17510.809233  38462.845900  -1345.748786   -741.855933
PC19 -16885.982001 -21959.382850   3448.951846    941.646826
PC20  -4779.249309 -24202.236170 -13063.258284   -791.041497
PC21 -10951.622183  11994.255565  22696.957729   -933.369990
PC22 -19645.311422  -6973.423872  18554.381430   -962.957023
PC23  27722.910502   1154.809703  -3011.145281   -969.779047
PC24  -3823.706493  16202.429057 -22396.483937   -967.961958
PC25  18137.117356  11605.900597 -17767.272574   -832.000782
PC26 -21017.112073  11506.486843 -14280.070357    828.635641
PC27  17361.399689 -20291.230230   8066.119281    621.734761
PC29  -8897.458966 -15502.362264 -21434.944562    467.734364
PC30   5891.010154 -25781.835312  -8884.761049    484.960754
PC32  10902.973789 -12036.163118 -22688.700822   -966.785678
PC33  16954.521941  21904.989128  -3340.072685   -970.366582
PC34  -5291.466331  25654.951199   9639.748374   -547.816706
PC35 -18010.640245   3304.190673 -21069.544755    -21.605306
PC36 -17430.397998 -12239.544282  18054.756684   -791.327624
PC37  22068.218293 -10512.005425  13505.409945   -882.530247
PC38 -22093.553730  21734.186145  28512.044665    186.033213
PC39 -18527.974995  37686.699264   4614.788770     33.833072
PC40  -6635.851113  26752.622139 -31854.191501    213.330316
PC41  19750.408439   7281.914870 -18284.226755   -918.651392
PC42   3994.742967  23938.126848  13798.299320   -951.073769
PC43   8488.734030  16120.887027  21137.915377   -963.882369
PC44 -16790.848979  20728.378626  -8248.388962    449.861473
PC45 -27728.164638   -990.305345   2857.681326    588.028051
PC46   2447.658090 -16145.401651  22640.186761     15.072172
PC59 -32290.329759  27091.572866    -77.339520      0.403611
PC60   7279.049768  41519.048824    548.063912     -0.520886
PE01 -23488.730212   1940.757744 -17893.999624   -506.817850
PE02  23419.648671  -2056.902362  18002.529465    257.059118
PE03  15489.674313 -10590.328252 -22905.669311   -490.821291
PE04  -5878.322438  26854.330014  10973.536532   -889.221826
PE05  16170.974990  12201.314385 -21588.474639   -237.671209
PE07  -7420.736503 -27602.943407   7708.843345   -601.776271
PE08   5454.861775 -27067.076943 -10690.004183   5912.941883
PE09   7622.513082  27471.612484  -7941.795707   5480.105937
PE11   3852.094426  16513.250563  24256.345906   5171.662519
PE12 -16015.912107  21235.719984  12996.262355   4934.106060
PE13  -3286.808092 -16738.378141 -24185.732655    423.177393
PE14   -367.549541  24392.925917   3917.480845  -1623.431608
PE15  16027.944286 -21242.671057 -12962.106452    783.719296
PE18  -8656.513501 -26549.273486 -15587.908554  -1783.761020
PE19 -16004.080490   7840.978073  23631.273643    415.506250
PE21 -27049.701967 -11884.218947  -1750.469453   -696.740413
PE24  14094.748056  19795.632211 -16922.450248  -1200.029955
PE25  27012.295767  12016.618824   1550.283224   -551.886518
PE26 -21288.861224  -1734.567767 -20481.253478   1168.009637
PE27 -15163.811097 -19600.949758  16189.401901   -154.131106
PE31  -5516.733938  15728.572964 -24446.533500   -487.450706
PE33 -25826.743779  13221.297719  -5845.182530   -463.115260
PE36  20587.105874   2410.776557  21137.832866   -283.406448
PG01   3475.737440 -16569.824908 -20645.236418    524.314946
PG02 -21199.730926  15582.328483   4608.664256   -639.910518
PG03  -6265.463363 -19053.381464 -17569.449262     -2.549927
PG04    130.579191 -26163.991822   4343.318413   -202.844859
PG05  -8542.503974  12576.442580  21612.540299    -59.444150
PG06 -24483.206590   4588.157774  -9234.064740    106.523747
PG07 -13285.570019 -10372.481822  20999.629471    270.874223
PG08   6658.112634 -24504.708533   7185.453717    -42.179780
PG09  -8671.694350 -20637.863667  14200.574613   -361.903292
PG10  23470.455026  10879.940208  -6536.921705   -235.447951
PG12   3547.306003  19096.388949 -18427.936287   -119.282784
PG13 -12969.497308  19521.457155  12197.377161    207.415429
PG14 -22980.593319 -11546.937608  -6750.977656    -29.266974
PG15  -3699.774628  25302.799929   6102.849524   -110.049022
PG16  12766.136359  -8447.763237  21503.229977   -415.966164
PG17 -13065.297397  -8316.189846 -21138.078929    526.808221
PG18  14043.145744   9222.827503  20587.056048    302.809115
PG19 -15273.346207   1353.939981 -21934.000585     72.877078
PG20 -18156.228419   5940.549904  18321.623312    518.370364
PG21  11787.797337 -18161.997744 -14303.341509    149.504860
PG22   1309.787300 -16572.671049 -20580.411056   -476.436459
PG23  19988.975868  16955.129281   4535.185966     38.686653
PG24  -6954.168103  18744.859951 -17557.167788    261.292921
PG25  14223.693194  19631.792078 -11430.708517    232.949723
PG26  22050.007134    998.902974  14916.438197    150.424399
PG27  12079.529387 -17499.059311  15490.768206   -213.109321
PG28 -21774.837942  -7043.863249 -12756.570695    472.305217
PG29   4177.882340  23360.689084  11816.927429   -433.807787
PG30 -21804.180195  -2586.265116  15176.186292   -487.163861
PG31  25275.355659  -5612.957652  -7052.399403   -147.695034
PG32  14916.613395   3749.765666 -21551.243796    -16.161291
PJ01 -26361.079560  23017.711458  28453.141517    153.466321
PJ02 -26550.824717  16483.029926 -23784.877265     -4.139396
PJ03 -26015.229101  32149.978206  -3665.849049     -5.027600
PJ07 -25367.110104  33672.173631    -13.548194     -0.195046
PR01   6596.941332  23707.464266   6694.156443     87.447989
PR02  13448.693007  17211.091184 -13197.974707    498.464541
PR03  11729.131396    360.376625 -22620.106533     45.613376
PR04   3248.209311 -16342.883614 -19289.696249    111.914131
PR05  -6816.727255 -24003.285233  -5224.520014     81.610258
PR07 -11476.230486    480.552035  22800.255610    -40.293837
PR08  -3293.276494  16455.473699  19268.283286    -61.749754
PR09 -22196.001322  -7767.996034   9991.086911     21.003262
PR11 -13203.015833   7994.758139 -20298.098545     50.601812
PR12   6706.919924  11413.879440 -21777.767394    274.447761
PR13  21629.631744   8009.493383 -10906.630679    -62.876567
PR14  24376.599294   -346.352584   7497.678788     70.493144
PR15  12660.032958  -8181.214974  20601.650582    100.517332
PR16  -8139.545449 -11352.090926  21293.960504    -24.145032
PR17  17313.402724 -10403.349319  15621.196900    470.736597
PR18  15928.722353 -19894.663973   -144.287293     95.563592
PR19   7404.859941 -19132.432265 -15164.976934   -165.148233
PR20  -8369.335172  -6096.266839 -23301.821023    -58.481616
PR21 -17527.956618  11377.552184 -14599.196232   -250.849450
PR22 -15718.512347  20114.581982   1153.893364   -142.180890
PR24   9348.096352   5622.544645  23078.152700     64.947900
EOF
